ONEWEB-0429             
1 50500U 21132AH  26102.09849232  .00000072  00000+0  15009-3 0  9993
2 50500  87.9220 348.6019 0001906  79.4441 280.6906 13.18685870212874
ONEWEB-0430             
1 50501U 21132AJ  26102.08694103  .00000088  00000+0  19053-3 0  9998
2 50501  87.9222 348.6023 0001841  72.7328 287.4005 13.18687834212912
ONEWEB-0432             
1 50502U 21132AK  26102.12116240  .00000036  00000+0  59064-4 0  9995
2 50502  87.9231 348.5657 0001222  61.0628 299.0626 13.18647421212873
ONEWEB-0440             
1 50503U 21132AL  26102.10673987  .00000103  00000+0  22810-3 0  9993
2 50503  87.9230 348.5894 0002087  88.2062 271.9309 13.18685963212868
ONEWEB-0450             
1 50504U 21132AM  26102.10027509 -.00001673  00000+0 -42783-2 0  9992
2 50504  87.9223 348.6020 0002317  73.5718 286.5669 13.18682180212896
ONEWEB-0410             
1 51622U 22012A   26102.22873003 -.00000007  00000+0 -51866-4 0  9997
2 51622  87.9197  18.9519 0000866 123.6347 236.4867 13.17647178205017
ONEWEB-0411             
1 51623U 22012B   26102.26917939 -.00000572  00000+0 -16745-2 0  9991
2 51623  87.8850  49.3786 0002172  65.1440 294.9913 13.10374282200655
ONEWEB-0415             
1 51624U 22012C   26102.26585013 -.00000536  00000+0 -15707-2 0  9993
2 51624  87.8841  49.3813 0001917  71.9759 288.1578 13.10372419200653
ONEWEB-0416             
1 51625U 22012D   26102.27772620 -.00025698  00000+0 -74067-1 0  9996
2 51625  87.8774  49.3872 0000525 119.8903 240.2277 13.10178611200698
ONEWEB-0422             
1 51626U 22012E   26102.16294033  .00000058  00000+0  11698-3 0  9996
2 51626  87.9192  18.9677 0002481  81.6032 278.5381 13.17648640205114
ONEWEB-0423             
1 51627U 22012F   26102.23211516  .00000034  00000+0  54784-4 0  9998
2 51627  87.9192  18.9627 0001863  80.9807 279.1535 13.17651483205011
ONEWEB-0425             
1 51628U 22012G   26102.13473315  .00000342  00000+0  94335-3 0  9992
2 51628  87.8842  49.4079 0001625  87.6029 272.5284 13.10377169200673
ONEWEB-0428             
1 51629U 22012H   26102.26751733 -.00000546  00000+0 -16004-2 0  9994
2 51629  87.8835  49.3919 0001945  80.5369 279.5978 13.10373063200656
ONEWEB-0431             
1 51630U 22012J   26102.23752614  .00000372  00000+0  10280-2 0  9997
2 51630  87.8840  49.3864 0002295  66.2253 293.9114 13.10369359200706
ONEWEB-0434             
1 51631U 22012K   26102.29090387  .00000514  00000+0  14374-2 0  9992
2 51631  87.8833  49.4012 0001519  98.5575 261.5724 13.10377046200696
ONEWEB-0435             
1 51632U 22012L   26102.29907284  .00000723  00000+0  20351-2 0  9990
2 51632  87.8827  49.3894 0002207  80.4063 279.7314 13.10377358200685
