[{"OBJECT_NAME":"ONEWEB-0429","OBJECT_ID":"2021-132AH","EPOCH":"2026-04-12T02:21:49.736448","MEAN_MOTION":13.1868587,"ECCENTRICITY":0.0001906,"INCLINATION":87.922,"RA_OF_ASC_NODE":348.6019,"ARG_OF_PERICENTER":79.4441,"MEAN_ANOMALY":280.6906,"EPHEMERIS_TYPE":0,"CLASSIFICATION_TYPE":"U","NORAD_CAT_ID":50500,"ELEMENT_SET_NO":999,"REV_AT_EPOCH":21287,"BSTAR":0.00015009,"MEAN_MOTION_DOT":7.2e-07,"MEAN_MOTION_DDOT":0.0},{"OBJECT_NAME":"ONEWEB-0430","OBJECT_ID":"2021-132AJ","EPOCH":"2026-04-12T02:05:11.704992","MEAN_MOTION":13.18687834,"ECCENTRICITY":0.0001841,"INCLINATION":87.9222,"RA_OF_ASC_NODE":348.6023,"ARG_OF_PERICENTER":72.7328,"MEAN_ANOMALY":287.4005,"EPHEMERIS_TYPE":0,"CLASSIFICATION_TYPE":"U","NORAD_CAT_ID":50501,"ELEMENT_SET_NO":999,"REV_AT_EPOCH":21291,"BSTAR":0.00019053,"MEAN_MOTION_DOT":8.8e-07,"MEAN_MOTION_DDOT":0.0},{"OBJECT_NAME":"ONEWEB-0432","OBJECT_ID":"2021-132AK","EPOCH":"2026-04-12T02:54:28.431360","MEAN_MOTION":13.18647421,"ECCENTRICITY":0.0001222,"INCLINATION":87.9231,"RA_OF_ASC_NODE":348.5657,"ARG_OF_PERICENTER":61.0628,"MEAN_ANOMALY":299.0626,"EPHEMERIS_TYPE":0,"CLASSIFICATION_TYPE":"U","NORAD_CAT_ID":50502,"ELEMENT_SET_NO":999,"REV_AT_EPOCH":21287,"BSTAR":5.906400000000001e-05,"MEAN_MOTION_DOT":3.6e-07,"MEAN_MOTION_DDOT":0.0},{"OBJECT_NAME":"ONEWEB-0440","OBJECT_ID":"2021-132AL","EPOCH":"2026-04-12T02:33:42.324768","MEAN_MOTION":13.18685963,"ECCENTRICITY":0.0002087,"INCLINATION":87.923,"RA_OF_ASC_NODE":348.5894,"ARG_OF_PERICENTER":88.2062,"MEAN_ANOMALY":271.9309,"EPHEMERIS_TYPE":0,"CLASSIFICATION_TYPE":"U","NORAD_CAT_ID":50503,"ELEMENT_SET_NO":999,"REV_AT_EPOCH":21286,"BSTAR":0.00022810000000000001,"MEAN_MOTION_DOT":1.03e-06,"MEAN_MOTION_DDOT":0.0},{"OBJECT_NAME":"ONEWEB-0450","OBJECT_ID":"2021-132AM","EPOCH":"2026-04-12T02:24:23.767776","MEAN_MOTION":13.1868218,"ECCENTRICITY":0.0002317,"INCLINATION":87.9223,"RA_OF_ASC_NODE":348.602,"ARG_OF_PERICENTER":73.5718,"MEAN_ANOMALY":286.5669,"EPHEMERIS_TYPE":0,"CLASSIFICATION_TYPE":"U","NORAD_CAT_ID":50504,"ELEMENT_SET_NO":999,"REV_AT_EPOCH":21289,"BSTAR":-0.0042783,"MEAN_MOTION_DOT":-1.673e-05,"MEAN_MOTION_DDOT":0.0},{"OBJECT_NAME":"ONEWEB-0410","OBJECT_ID":"2022-012A","EPOCH":"2026-04-12T05:29:22.274592","MEAN_MOTION":13.17647178,"ECCENTRICITY":8.66e-05,"INCLINATION":87.9197,"RA_OF_ASC_NODE":18.9519,"ARG_OF_PERICENTER":123.6347,"MEAN_ANOMALY":236.4867,"EPHEMERIS_TYPE":0,"CLASSIFICATION_TYPE":"U","NORAD_CAT_ID":51622,"ELEMENT_SET_NO":999,"REV_AT_EPOCH":20501,"BSTAR":-5.1866e-05,"MEAN_MOTION_DOT":-7e-08,"MEAN_MOTION_DDOT":0.0},{"OBJECT_NAME":"ONEWEB-0411","OBJECT_ID":"2022-012B","EPOCH":"2026-04-12T06:27:37.099296","MEAN_MOTION":13.10374282,"ECCENTRICITY":0.0002172,"INCLINATION":87.885,"RA_OF_ASC_NODE":49.3786,"ARG_OF_PERICENTER":65.144,"MEAN_ANOMALY":294.9913,"EPHEMERIS_TYPE":0,"CLASSIFICATION_TYPE":"U","NORAD_CAT_ID":51623,"ELEMENT_SET_NO":999,"REV_AT_EPOCH":20065,"BSTAR":-0.0016745,"MEAN_MOTION_DOT":-5.72e-06,"MEAN_MOTION_DDOT":0.0},{"OBJECT_NAME":"ONEWEB-0415","OBJECT_ID":"2022-012C","EPOCH":"2026-04-12T06:22:49.451232","MEAN_MOTION":13.10372419,"ECCENTRICITY":0.0001917,"INCLINATION":87.8841,"RA_OF_ASC_NODE":49.3813,"ARG_OF_PERICENTER":71.9759,"MEAN_ANOMALY":288.1578,"EPHEMERIS_TYPE":0,"CLASSIFICATION_TYPE":"U","NORAD_CAT_ID":51624,"ELEMENT_SET_NO":999,"REV_AT_EPOCH":20065,"BSTAR":-0.0015707,"MEAN_MOTION_DOT":-5.36e-06,"MEAN_MOTION_DDOT":0.0},{"OBJECT_NAME":"ONEWEB-0416","OBJECT_ID":"2022-012D","EPOCH":"2026-04-12T06:39:55.543680","MEAN_MOTION":13.10178611,"ECCENTRICITY":5.25e-05,"INCLINATION":87.8774,"RA_OF_ASC_NODE":49.3872,"ARG_OF_PERICENTER":119.8903,"MEAN_ANOMALY":240.2277,"EPHEMERIS_TYPE":0,"CLASSIFICATION_TYPE":"U","NORAD_CAT_ID":51625,"ELEMENT_SET_NO":999,"REV_AT_EPOCH":20069,"BSTAR":-0.07406700000000001,"MEAN_MOTION_DOT":-0.00025698,"MEAN_MOTION_DDOT":0.0},{"OBJECT_NAME":"ONEWEB-0422","OBJECT_ID":"2022-012E","EPOCH":"2026-04-12T03:54:38.044512","MEAN_MOTION":13.1764864,"ECCENTRICITY":0.0002481,"INCLINATION":87.9192,"RA_OF_ASC_NODE":18.9677,"ARG_OF_PERICENTER":81.6032,"MEAN_ANOMALY":278.5381,"EPHEMERIS_TYPE":0,"CLASSIFICATION_TYPE":"U","NORAD_CAT_ID":51626,"ELEMENT_SET_NO":999,"REV_AT_EPOCH":20511,"BSTAR":0.00011698000000000001,"MEAN_MOTION_DOT":5.8e-07,"MEAN_MOTION_DDOT":0.0},{"OBJECT_NAME":"ONEWEB-0423","OBJECT_ID":"2022-012F","EPOCH":"2026-04-12T05:34:14.749824","MEAN_MOTION":13.17651483,"ECCENTRICITY":0.0001863,"INCLINATION":87.9192,"RA_OF_ASC_NODE":18.9627,"ARG_OF_PERICENTER":80.9807,"MEAN_ANOMALY":279.1535,"EPHEMERIS_TYPE":0,"CLASSIFICATION_TYPE":"U","NORAD_CAT_ID":51627,"ELEMENT_SET_NO":999,"REV_AT_EPOCH":20501,"BSTAR":5.4784e-05,"MEAN_MOTION_DOT":3.4e-07,"MEAN_MOTION_DDOT":0.0},{"OBJECT_NAME":"ONEWEB-0425","OBJECT_ID":"2022-012G","EPOCH":"2026-04-12T03:14:00.944160","MEAN_MOTION":13.10377169,"ECCENTRICITY":0.0001625,"INCLINATION":87.8842,"RA_OF_ASC_NODE":49.4079,"ARG_OF_PERICENTER":87.6029,"MEAN_ANOMALY":272.5284,"EPHEMERIS_TYPE":0,"CLASSIFICATION_TYPE":"U","NORAD_CAT_ID":51628,"ELEMENT_SET_NO":999,"REV_AT_EPOCH":20067,"BSTAR":0.00094335,"MEAN_MOTION_DOT":3.42e-06,"MEAN_MOTION_DDOT":0.0},{"OBJECT_NAME":"ONEWEB-0428","OBJECT_ID":"2022-012H","EPOCH":"2026-04-12T06:25:13.497312","MEAN_MOTION":13.10373063,"ECCENTRICITY":0.0001945,"INCLINATION":87.8835,"RA_OF_ASC_NODE":49.3919,"ARG_OF_PERICENTER":80.5369,"MEAN_ANOMALY":279.5978,"EPHEMERIS_TYPE":0,"CLASSIFICATION_TYPE":"U","NORAD_CAT_ID":51629,"ELEMENT_SET_NO":999,"REV_AT_EPOCH":20065,"BSTAR":-0.0016003999999999999,"MEAN_MOTION_DOT":-5.46e-06,"MEAN_MOTION_DDOT":0.0},{"OBJECT_NAME":"ONEWEB-0431","OBJECT_ID":"2022-012J","EPOCH":"2026-04-12T05:42:02.258496","MEAN_MOTION":13.10369359,"ECCENTRICITY":0.0002295,"INCLINATION":87.884,"RA_OF_ASC_NODE":49.3864,"ARG_OF_PERICENTER":66.2253,"MEAN_ANOMALY":293.9114,"EPHEMERIS_TYPE":0,"CLASSIFICATION_TYPE":"U","NORAD_CAT_ID":51630,"ELEMENT_SET_NO":999,"REV_AT_EPOCH":20070,"BSTAR":0.001028,"MEAN_MOTION_DOT":3.72e-06,"MEAN_MOTION_DDOT":0.0},{"OBJECT_NAME":"ONEWEB-0434","OBJECT_ID":"2022-012K","EPOCH":"2026-04-12T06:58:54.094368","MEAN_MOTION":13.10377046,"ECCENTRICITY":0.0001519,"INCLINATION":87.8833,"RA_OF_ASC_NODE":49.4012,"ARG_OF_PERICENTER":98.5575,"MEAN_ANOMALY":261.5724,"EPHEMERIS_TYPE":0,"CLASSIFICATION_TYPE":"U","NORAD_CAT_ID":51631,"ELEMENT_SET_NO":999,"REV_AT_EPOCH":20069,"BSTAR":0.0014374000000000001,"MEAN_MOTION_DOT":5.14e-06,"MEAN_MOTION_DDOT":0.0},{"OBJECT_NAME":"ONEWEB-0435","OBJECT_ID":"2022-012L","EPOCH":"2026-04-12T07:10:39.893376","MEAN_MOTION":13.10377358,"ECCENTRICITY":0.0002207,"INCLINATION":87.8827,"RA_OF_ASC_NODE":49.3894,"ARG_OF_PERICENTER":80.4063,"MEAN_ANOMALY":279.7314,"EPHEMERIS_TYPE":0,"CLASSIFICATION_TYPE":"U","NORAD_CAT_ID":51632,"ELEMENT_SET_NO":999,"REV_AT_EPOCH":20068,"BSTAR":0.0020351,"MEAN_MOTION_DOT":7.23e-06,"MEAN_MOTION_DDOT":0.0}]